{
  "type": "FeatureCollection",
  "features": [
    {
      "type": "Feature",
      "properties": {
        "norad_id": 40894,
        "name": "GAOFEN-9 01",
        "group": "resource",
        "lat": 15.938096980093658,
        "lon": -156.28067762613574,
        "alt_km": 631.1537087107718,
        "timestamp": "2025-12-08T08:59:00.429377+00:00",
        "meta_object_name": "GAOFEN-9 01",
        "meta_object_id": "2015-047A",
        "meta_epoch": "2025-12-07T22:31:45.980832",
        "meta_mean_motion": 14.82403663,
        "meta_eccentricity": 0.00287054,
        "meta_inclination": 97.6544,
        "meta_ra_of_asc_node": 21.1015,
        "meta_arg_of_pericenter": 49.5211,
        "meta_mean_anomaly": 310.8498,
        "meta_ephemeris_type": 0,
        "meta_classification_type": "U",
        "meta_norad_cat_id": 40894,
        "meta_element_set_no": 999,
        "meta_rev_at_epoch": 55185,
        "meta_bstar": 0.00023626054,
        "meta_mean_motion_dot": 1.855e-05,
        "meta_mean_motion_ddot": 0,
        "tle_line1": "1 40894U 15047A   25341.93872663  .00001855  00000+0  23626-3 0  9991",
        "tle_line2": "2 40894  97.6544  21.1015 0028705  49.5211 310.8498 14.82403663551850"
      },
      "geometry": {
        "type": "Point",
        "coordinates": [
          -156.28067762613574,
          15.938096980093658
        ]
      }
    },
    {
      "type": "Feature",
      "properties": {
        "norad_id": 41026,
        "name": "YAOGAN-28",
        "group": "resource",
        "lat": 17.417495778363985,
        "lon": 117.99165150760426,
        "alt_km": 498.1323340323879,
        "timestamp": "2025-12-08T08:59:00.429387+00:00",
        "meta_object_name": "YAOGAN-28",
        "meta_object_id": "2015-064A",
        "meta_epoch": "2025-12-07T21:52:38.877312",
        "meta_mean_motion": 15.2422921,
        "meta_eccentricity": 0.00121936,
        "meta_inclination": 97.281,
        "meta_ra_of_asc_node": 119.8409,
        "meta_arg_of_pericenter": 141.7422,
        "meta_mean_anomaly": 218.4683,
        "meta_ephemeris_type": 0,
        "meta_classification_type": "U",
        "meta_norad_cat_id": 41026,
        "meta_element_set_no": 999,
        "meta_rev_at_epoch": 56151,
        "meta_bstar": 0.00044301505,
        "meta_mean_motion_dot": 0.00010762,
        "meta_mean_motion_ddot": 0,
        "tle_line1": "1 41026U 15064A   25341.91156108  .00010762  00000+0  44302-3 0  9996",
        "tle_line2": "2 41026  97.2810 119.8409 0012193 141.7422 218.4683 15.24229210561519"
      },
      "geometry": {
        "type": "Point",
        "coordinates": [
          117.99165150760426,
          17.417495778363985
        ]
      }
    },
    {
      "type": "Feature",
      "properties": {
        "norad_id": 41038,
        "name": "YAOGAN-29",
        "group": "resource",
        "lat": 43.28828239780681,
        "lon": -2.1021965875359667,
        "alt_km": 616.5111778111586,
        "timestamp": "2025-12-08T08:59:00.429397+00:00",
        "meta_object_name": "YAOGAN-29",
        "meta_object_id": "2015-069A",
        "meta_epoch": "2025-12-07T23:04:10.986528",
        "meta_mean_motion": 14.82874098,
        "meta_eccentricity": 4.077e-05,
        "meta_inclination": 98.0222,
        "meta_ra_of_asc_node": 5.1175,
        "meta_arg_of_pericenter": 351.5246,
        "meta_mean_anomaly": 8.5961,
        "meta_ephemeris_type": 0,
        "meta_classification_type": "U",
        "meta_norad_cat_id": 41038,
        "meta_element_set_no": 999,
        "meta_rev_at_epoch": 54228,
        "meta_bstar": 0.00010137294,
        "meta_mean_motion_dot": 7.67e-06,
        "meta_mean_motion_ddot": 0,
        "tle_line1": "1 41038U 15069A   25341.96123827  .00000767  00000+0  10137-3 0  9994",
        "tle_line2": "2 41038  98.0222   5.1175 0000407 351.5246   8.5961 14.82874098542288"
      },
      "geometry": {
        "type": "Point",
        "coordinates": [
          -2.1021965875359667,
          43.28828239780681
        ]
      }
    },
    {
      "type": "Feature",
      "properties": {
        "norad_id": 41167,
        "name": "KENT RIDGE 1",
        "group": "resource",
        "lat": -9.124218003532246,
        "lon": -153.3797077268393,
        "alt_km": 501.0884798968109,
        "timestamp": "2025-12-08T08:59:00.429408+00:00",
        "meta_object_name": "KENT RIDGE 1",
        "meta_object_id": "2015-077B",
        "meta_epoch": "2025-12-07T22:08:09.909024",
        "meta_mean_motion": 15.21577849,
        "meta_eccentricity": 0.00085583,
        "meta_inclination": 14.9791,
        "meta_ra_of_asc_node": 246.8888,
        "meta_arg_of_pericenter": 62.424,
        "meta_mean_anomaly": 297.695,
        "meta_ephemeris_type": 0,
        "meta_classification_type": "U",
        "meta_norad_cat_id": 41167,
        "meta_element_set_no": 999,
        "meta_rev_at_epoch": 55190,
        "meta_bstar": 0.00023328058,
        "meta_mean_motion_dot": 6.183e-05,
        "meta_mean_motion_ddot": 0,
        "tle_line1": "1 41167U 15077B   25341.92233691  .00006183  00000+0  23328-3 0  9997",
        "tle_line2": "2 41167  14.9791 246.8888 0008558  62.4240 297.6950 15.21577849551907"
      },
      "geometry": {
        "type": "Point",
        "coordinates": [
          -153.3797077268393,
          -9.124218003532246
        ]
      }
    },
    {
      "type": "Feature",
      "properties": {
        "norad_id": 41194,
        "name": "GAOFEN-4",
        "group": "resource",
        "lat": -0.14097929730210132,
        "lon": -42.132456118527465,
        "alt_km": 35796.021179178155,
        "timestamp": "2025-12-08T08:59:00.429421+00:00",
        "meta_object_name": "GAOFEN-4",
        "meta_object_id": "2015-083A",
        "meta_epoch": "2025-12-07T22:09:38.469888",
        "meta_mean_motion": 1.00271606,
        "meta_eccentricity": 0.00035574,
        "meta_inclination": 0.1578,
        "meta_ra_of_asc_node": 81.0115,
        "meta_arg_of_pericenter": 105.6541,
        "meta_mean_anomaly": 328.3908,
        "meta_ephemeris_type": 0,
        "meta_classification_type": "U",
        "meta_norad_cat_id": 41194,
        "meta_element_set_no": 999,
        "meta_rev_at_epoch": 3661,
        "meta_bstar": 0,
        "meta_mean_motion_dot": -3.32e-06,
        "meta_mean_motion_ddot": 0,
        "tle_line1": "1 41194U 15083A   25341.92336192 -.00000332  00000+0  00000+0 0  9993",
        "tle_line2": "2 41194   0.1578  81.0115 0003557 105.6541 328.3908  1.00271606 36612"
      },
      "geometry": {
        "type": "Point",
        "coordinates": [
          -42.132456118527465,
          -0.14097929730210132
        ]
      }
    },
    {
      "type": "Feature",
      "properties": {
        "norad_id": 41240,
        "name": "JASON-3",
        "group": "resource",
        "lat": -50.59158561731859,
        "lon": 19.76625665402402,
        "alt_km": 1312.3338655271436,
        "timestamp": "2025-12-08T08:59:00.429432+00:00",
        "meta_object_name": "JASON-3",
        "meta_object_id": "2016-002A",
        "meta_epoch": "2025-12-07T22:25:56.099712",
        "meta_mean_motion": 12.87626271,
        "meta_eccentricity": 0.00071261,
        "meta_inclination": 66.039,
        "meta_ra_of_asc_node": 167.9265,
        "meta_arg_of_pericenter": 270.5103,
        "meta_mean_anomaly": 89.5099,
        "meta_ephemeris_type": 0,
        "meta_classification_type": "U",
        "meta_norad_cat_id": 41240,
        "meta_element_set_no": 999,
        "meta_rev_at_epoch": 46262,
        "meta_bstar": 1.0545739e-05,
        "meta_mean_motion_dot": -6e-07,
        "meta_mean_motion_ddot": 0,
        "tle_line1": "1 41240U 16002A   25341.93467708 -.00000060  00000+0  10546-4 0  9995",
        "tle_line2": "2 41240  66.0390 167.9265 0007126 270.5103  89.5099 12.87626271462629"
      },
      "geometry": {
        "type": "Point",
        "coordinates": [
          19.76625665402402,
          -50.59158561731859
        ]
      }
    },
    {
      "type": "Feature",
      "properties": {
        "norad_id": 41335,
        "name": "SENTINEL-3A",
        "group": "resource",
        "lat": -79.47091743330034,
        "lon": 172.73493866177472,
        "alt_km": 810.6474770692057,
        "timestamp": "2025-12-08T08:59:00.429442+00:00",
        "meta_object_name": "SENTINEL-3A",
        "meta_object_id": "2016-011A",
        "meta_epoch": "2025-12-07T23:20:04.493472",
        "meta_mean_motion": 14.2674369,
        "meta_eccentricity": 9.645e-05,
        "meta_inclination": 98.6213,
        "meta_ra_of_asc_node": 47.051,
        "meta_arg_of_pericenter": 92.5472,
        "meta_mean_anomaly": 267.5819,
        "meta_ephemeris_type": 0,
        "meta_classification_type": "U",
        "meta_norad_cat_id": 41335,
        "meta_element_set_no": 999,
        "meta_rev_at_epoch": 51079,
        "meta_bstar": 0.00012209576,
        "meta_mean_motion_dot": 2.52e-06,
        "meta_mean_motion_ddot": 0,
        "tle_line1": "1 41335U 16011A   25341.97227423  .00000252  00000+0  12210-3 0  9993",
        "tle_line2": "2 41335  98.6213  47.0510 0000964  92.5472 267.5819 14.26743690510794"
      },
      "geometry": {
        "type": "Point",
        "coordinates": [
          172.73493866177472,
          -79.47091743330034
        ]
      }
    }
  ]
}